NORAD_CAT_ID,OBJECT_NAME,OBJECT_TYPE,EPOCH,MEAN_MOTION,ECCENTRICITY,INCLINATION,RA_OF_ASC_NODE,ARG_OF_PERICENTER,MEAN_ANOMALY,BSTAR,MEAN_MOTION_DOT,MEAN_MOTION_DDOT,TLE_LINE0,TLE_LINE1,TLE_LINE2,SEMIMAJOR_AXIS,PERIOD,APOGEE,PERIGEE,DECAYED
53737.0,STARLINK-4646,PAYLOAD,2024-02-20 15:04:43,15.08837763,0.0001644,53.2194,22.1548,88.7163,271.4017,5.5534e-05,5.96e-06,0.0,0 STARLINK-4646,1 53737U 22107AP  24051.62828662  .00000596  00000-0  55534-4 0  9995,2 53737  53.2194  22.1548 0001644  88.7163 271.4017 15.08837763 80885,6917.887,95.438,540.89,538.615,0.0
53737.0,STARLINK-4646,PAYLOAD,2024-02-21 03:47:48,15.08850203,0.000149,53.2185,19.7775,95.7695,264.3467,0.00020166,2.924e-05,0.0,0 STARLINK-4646,1 53737U 22107AP  24052.15819991  .00002924  00000-0  20166-3 0  9998,2 53737  53.2185  19.7775 0001490  95.7695 264.3467 15.08850203 80969,6917.849,95.437,540.745,538.683,0.0
53737.0,STARLINK-4646,PAYLOAD,2024-02-21 14:55:30,15.08844415,0.0001659,53.2186,17.693,78.3237,281.7941,0.00017562,2.508e-05,0.0,0 STARLINK-4646,1 53737U 22107AP  24052.62188329  .00002508  00000-0  17562-3 0  9998,2 53737  53.2186  17.6930 0001659  78.3237 281.7941 15.08844415 81819,6917.867,95.437,540.88,538.584,0.0
53737.0,STARLINK-4646,PAYLOAD,2024-02-22 03:38:36,15.08835705,0.000139,53.2178,15.3107,84.0784,276.0366,0.00015866,2.238e-05,0.0,0 STARLINK-4646,1 53737U 22107AP  24053.15180784  .00002238  00000-0  15866-3 0  9999,2 53737  53.2178  15.3107 0001390  84.0784 276.0366 15.08835705 81117,6917.894,95.438,540.72,538.797,0.0
53737.0,STARLINK-4646,PAYLOAD,2024-02-22 14:46:17,15.08843703,0.0001555,53.2176,13.2306,85.0495,275.0674,0.0001615,2.283e-05,0.0,0 STARLINK-4646,1 53737U 22107AP  24053.61548466  .00002283  00000-0  16150-3 0  9992,2 53737  53.2176  13.2306 0001555  85.0495 275.0674 15.08843703 81967,6917.869,95.437,540.81,538.658,0.0
53737.0,STARLINK-4646,PAYLOAD,2024-02-23 03:29:22,15.08849767,0.0001615,53.2176,10.8507,89.5924,270.5254,0.00019376,2.798e-05,0.0,0 STARLINK-4646,1 53737U 22107AP  24054.14540119  .00002798  00000-0  19376-3 0  9992,2 53737  53.2176  10.8507 0001615  89.5924 270.5254 15.08849767 81269,6917.851,95.437,540.833,538.598,0.0
53737.0,STARLINK-4646,PAYLOAD,2024-02-23 14:37:04,15.08844903,0.0001313,53.2193,8.7704,92.0914,268.0228,0.00015768,2.223e-05,0.0,0 STARLINK-4646,1 53737U 22107AP  24054.60908167  .00002223  00000-0  15768-3 0  9998,2 53737  53.2193   8.7704 0001313  92.0914 268.0228 15.08844903 82111,6917.865,95.437,540.639,538.822,0.0
53737.0,STARLINK-4646,PAYLOAD,2024-02-24 03:20:10,15.08841198,0.0001792,53.2182,6.39,106.2925,253.8264,9.7778e-05,1.268e-05,0.0,0 STARLINK-4646,1 53737U 22107AP  24055.13900505  .00001268  00000-0  97778-4 0  9995,2 53737  53.2182   6.3900 0001792 106.2925 253.8264 15.08841198 81419,6917.877,95.437,540.981,538.502,0.0
53737.0,STARLINK-4646,PAYLOAD,2024-02-25 12:43:16,15.08845304,0.0001807,53.22,0.1483,104.305,255.8143,0.00021382,3.117e-05,0.0,0 STARLINK-4646,1 53737U 22107AP  24056.53004656  .00003117  00000-0  21382-3 0  9994,2 53737  53.2200   0.1483 0001807 104.3050 255.8143 15.08845304 81627,6917.864,95.437,540.979,538.479,0.0
53737.0,STARLINK-4646,PAYLOAD,2024-02-25 19:04:48,15.08844008,0.000183,53.2202,358.9602,97.5117,262.6084,0.00024358,3.591e-05,0.0,0 STARLINK-4646,1 53737U 22107AP  24056.79500804  .00003591  00000-0  24358-3 0  9990,2 53737  53.2202 358.9602 0001830  97.5117 262.6084 15.08844008 82440,6917.868,95.437,540.999,538.467,0.0
53737.0,STARLINK-4646,PAYLOAD,2024-02-26 03:01:44,15.08845107,0.0001718,53.2195,357.4748,101.5202,258.5983,0.00027239,4.05e-05,0.0,0 STARLINK-4646,1 53737U 22107AP  24057.12620690  .00004050  00000-0  27239-3 0  9996,2 53737  53.2195 357.4748 0001718 101.5202 258.5983 15.08845107 82490,6917.865,95.437,540.918,538.541,0.0
53737.0,STARLINK-4646,PAYLOAD,2024-02-26 18:55:35,15.08840294,0.0001664,53.2196,354.502,103.9284,256.1893,9.6681e-05,1.251e-05,0.0,0 STARLINK-4646,1 53737U 22107AP  24057.78860907  .00001251  00000-0  96681-4 0  9993,2 53737  53.2196 354.5020 0001664 103.9284 256.1893 15.08840294 81819,6917.879,95.438,540.896,538.593,0.0
53737.0,STARLINK-4646,PAYLOAD,2024-02-27 01:17:08,15.08834944,0.0001661,53.219,353.3102,99.0407,261.0773,-4.7878e-06,-3.64e-06,0.0,0 STARLINK-4646,1 53737U 22107AP  24058.05357294 -.00000364  00000-0 -47878-5 0  9995,2 53737  53.2190 353.3102 0001661  99.0407 261.0773 15.08834944 81851,6917.896,95.438,540.91,538.612,0.0
53737.0,STARLINK-4646,PAYLOAD,2024-02-27 12:24:50,15.08834601,0.0001635,53.2192,351.2287,96.8334,263.2844,-5.3496e-06,-3.73e-06,0.0,0 STARLINK-4646,1 53737U 22107AP  24058.51725453 -.00000373  00000-0 -53496-5 0  9995,2 53737  53.2192 351.2287 0001635  96.8334 263.2844 15.08834601 82707,6917.897,95.438,540.893,538.631,0.0
53737.0,STARLINK-4646,PAYLOAD,2024-02-27 18:46:23,15.08834164,0.0001516,53.2183,350.0398,93.7667,266.3499,3.4876e-05,2.67e-06,0.0,0 STARLINK-4646,1 53737U 22107AP  24058.78221557  .00000267  00000-0  34876-4 0  9990,2 53737  53.2183 350.0398 0001516  93.7667 266.3499 15.08834164 82748,6917.898,95.438,540.812,538.714,0.0
53737.0,STARLINK-4646,PAYLOAD,2024-02-28 02:43:18,15.08842758,0.000141,53.2181,348.5534,86.1225,273.9928,0.00013118,1.801e-05,0.0,0 STARLINK-4646,1 53737U 22107AP  24059.11341211  .00001801  00000-0  13118-3 0  9998,2 53737  53.2181 348.5534 0001410  86.1225 273.9928 15.08842758 82018,6917.872,95.437,540.712,538.762,0.0
53737.0,STARLINK-4646,PAYLOAD,2024-02-28 12:15:37,15.08842158,0.0001444,53.2177,346.7671,87.2258,272.8899,0.00021013,3.058e-05,0.0,0 STARLINK-4646,1 53737U 22107AP  24059.51085265  .00003058  00000-0  21013-3 0  9995,2 53737  53.2177 346.7671 0001444  87.2258 272.8899 15.08842158 82851,6917.874,95.437,540.738,538.74,0.0
53737.0,STARLINK-4646,PAYLOAD,2024-02-29 04:09:29,15.08842826,0.0001561,53.2191,343.7915,80.9463,279.1705,0.00015038,2.106e-05,0.0,0 STARLINK-4646,1 53737U 22107AP  24060.17325335  .00002106  00000-0  15038-3 0  9997,2 53737  53.2191 343.7915 0001561  80.9463 279.1705 15.08842826 82176,6917.872,95.437,540.817,538.657,0.0
53737.0,STARLINK-4646,PAYLOAD,2024-02-29 12:06:24,15.08840242,0.000142,53.2187,342.3049,87.8939,272.2216,0.00011888,1.605e-05,0.0,0 STARLINK-4646,1 53737U 22107AP  24060.50445515  .00001605  00000-0  11888-3 0  9999,2 53737  53.2187 342.3049 0001420  87.8939 272.2216 15.08840242 83006,6917.88,95.438,540.727,538.762,0.0
53737.0,STARLINK-4646,PAYLOAD,2024-02-29 18:27:57,15.08829624,9.46e-05,53.2184,341.1171,92.3713,267.7387,0.00018855,2.713e-05,0.0,0 STARLINK-4646,1 53737U 22107AP  24060.76941890  .00002713  00000-0  18855-3 0  9996,2 53737  53.2184 341.1171 0000946  92.3713 267.7387 15.08829624 82265,6917.912,95.438,540.432,539.123,0.0
53737.0,STARLINK-4646,PAYLOAD,2024-03-01 04:00:15,15.0885307,0.0001388,53.2181,339.3339,93.123,266.9921,0.00010233,1.342e-05,0.0,0 STARLINK-4646,1 53737U 22107AP  24061.16684624  .00001342  00000-0  10233-3 0  9999,2 53737  53.2181 339.3339 0001388  93.1230 266.9921 15.08853070 82325,6917.84,95.437,540.666,538.745,0.0
53737.0,STARLINK-4646,PAYLOAD,2024-03-01 11:57:11,15.08847922,0.00012,53.2175,337.8478,84.0447,276.0682,8.3485e-05,1.041e-05,0.0,0 STARLINK-4646,1 53737U 22107AP  24061.49804886  .00001041  00000-0  83485-4 0  9995,2 53737  53.2175 337.8478 0001200  84.0447 276.0682 15.08847922 83154,6917.856,95.437,540.551,538.891,0.0
53737.0,STARLINK-4646,PAYLOAD,2024-03-01 21:29:30,15.08841439,0.0001591,53.2192,336.0574,91.9228,268.1947,7.5511e-05,9.14e-06,0.0,0 STARLINK-4646,1 53737U 22107AP  24061.89549253  .00000914  00000-0  75511-4 0  9992,2 53737  53.2192 336.0574 0001591  91.9228 268.1947 15.08841439 83218,6917.876,95.437,540.842,538.64,0.0
53737.0,STARLINK-4646,PAYLOAD,2024-03-02 00:40:16,15.08847592,0.0001567,53.2196,335.4641,95.9629,264.1542,2.016e-05,3.3e-07,0.0,0 STARLINK-4646,1 53737U 22107AP  24062.02796953  .00000033  00000-0  20160-4 0  9991,2 53737  53.2196 335.4641 0001567  95.9629 264.1542 15.08847592 83237,6917.857,95.437,540.806,538.638,0.0
53737.0,STARLINK-4646,PAYLOAD,2024-03-02 21:20:17,15.08833039,0.0001088,53.2195,331.5984,103.6635,256.4478,0.00018977,2.733e-05,0.0,0 STARLINK-4646,1 53737U 22107AP  24062.88909282  .00002733  00000-0  18977-3 0  9997,2 53737  53.2195 331.5984 0001088 103.6635 256.4478 15.08833039 83362,6917.902,95.438,540.519,539.014,0.0
53737.0,STARLINK-4646,PAYLOAD,2024-03-03 00:31:03,15.08847322,0.0001513,53.2193,331.0061,102.4439,257.6722,1.6222e-06,-2.62e-06,0.0,0 STARLINK-4646,1 53737U 22107AP  24063.02156878 -.00000262  00000-0  16222-5 0  9998,2 53737  53.2193 331.0061 0001513 102.4439 257.6722 15.08847322 82604,6917.858,95.437,540.77,538.676,0.0
53737.0,STARLINK-4646,PAYLOAD,2024-03-03 18:00:18,15.08835656,0.0001711,53.2192,327.7346,91.4303,268.6885,1.0983e-05,-1.13e-06,0.0,0 STARLINK-4646,1 53737U 22107AP  24063.75021723 -.00000113  00000-0  10983-4 0  9990,2 53737  53.2192 327.7346 0001711  91.4303 268.6885 15.08835656 83495,6917.894,95.438,540.942,538.575,0.0
53737.0,STARLINK-4646,PAYLOAD,2024-03-04 03:32:36,15.0884684,0.0001642,53.2184,325.946,100.9185,259.1992,5.8458e-05,6.43e-06,0.0,0 STARLINK-4646,1 53737U 22107AP  24064.14764758  .00000643  00000-0  58458-4 0  9992,2 53737  53.2184 325.9460 0001642 100.9185 259.1992 15.08846840 82771,6917.859,95.437,540.86,538.589,0.0
53737.0,STARLINK-4646,PAYLOAD,2024-03-04 09:54:09,15.08848843,0.0001677,53.2187,324.7579,75.8169,284.3009,7.6289e-05,9.27e-06,0.0,0 STARLINK-4646,1 53737U 22107AP  24064.41260665  .00000927  00000-0  76289-4 0  9997,2 53737  53.2187 324.7579 0001677  75.8169 284.3009 15.08848843 83597,6917.853,95.437,540.878,538.558,0.0
53737.0,STARLINK-4646,PAYLOAD,2024-03-04 22:37:14,15.08849495,0.0001441,53.2179,322.3791,91.8922,268.2235,0.0001023,1.341e-05,0.0,0 STARLINK-4646,1 53737U 22107AP  24064.94252394  .00001341  00000-0  10230-3 0  9999,2 53737  53.2179 322.3791 0001441  91.8922 268.2235 15.08849495 83677,6917.851,95.437,540.713,538.72,0.0
